IRIDIUM 39              
1 25042U 97069D   25337.97136786  .00001491  00000+0  38325-3 0  9999
2 25042  86.3911 138.3923 0019768  98.4835 261.8611 14.49483940473555
IRIDIUM 38              
1 25043U 97069E   25337.93364708  .00000862  00000+0  27693-3 0  9990
2 25043  86.3970 161.8107 0000285 151.7114 208.4099 14.38300683470355
IRIDIUM 42              
1 25077U 97077A   25338.07923100  .00000783  00000+0  26017-3 0  9990
2 25077  86.3980 168.1253 0001261  81.0844 279.0496 14.36520391465587
IRIDIUM 44              
1 25078U 97077B   25338.20005944  .00000854  00000+0  26271-3 0  9994
2 25078  86.3964 149.5598 0002554 136.1242 224.0161 14.40421302468179
IRIDIUM 45              
1 25104U 97082A   25338.24332333  .00051646  00000+0  14790-2 0  9996
2 25104  86.3532 324.8640 0102609  52.4575 308.5941 15.30532496477976
IRIDIUM 24              
1 25105U 97082B   25338.16071276  .00000863  00000+0  25548-3 0  9993
2 25105  86.3918   8.1929 0009647 228.6781 131.3589 14.42315565467710
IRIDIUM 51              
1 25262U 98018A   25337.99083257  .00149471  00000+0  17195-2 0  9996
2 25262  86.3730 330.7302 0051315 312.7184  46.9765 15.59890519473288
IRIDIUM 57              
1 25273U 98019B   25338.27120025  .00000783  00000+0  26289-3 0  9993
2 25273  86.3958  73.9413 0001981  96.6807 263.4615 14.36041997449190
